[{"OBJECT_NAME":"ONEWEB-0647","OBJECT_ID":"2023-043AK","EPOCH":"2025-08-13T13:10:57.549216","MEAN_MOTION":13.15549046,"ECCENTRICITY":0.000211,"INCLINATION":87.9084,"RA_OF_ASC_NODE":320.5984,"ARG_OF_PERICENTER":95.4046,"MEAN_ANOMALY":264.7325,"EPHEMERIS_TYPE":0,"CLASSIFICATION_TYPE":"U","NORAD_CAT_ID":56079,"ELEMENT_SET_NO":999,"REV_AT_EPOCH":11597,"BSTAR":-0.00018215,"MEAN_MOTION_DOT":-5.6e-7,"MEAN_MOTION_DDOT":0},{"OBJECT_NAME":"ONEWEB-0651","OBJECT_ID":"2023-043AL","EPOCH":"2025-08-13T05:46:02.064288","MEAN_MOTION":13.15550135,"ECCENTRICITY":0.0002191,"INCLINATION":87.9086,"RA_OF_ASC_NODE":320.6494,"ARG_OF_PERICENTER":104.5246,"MEAN_ANOMALY":255.6127,"EPHEMERIS_TYPE":0,"CLASSIFICATION_TYPE":"U","NORAD_CAT_ID":56080,"ELEMENT_SET_NO":999,"REV_AT_EPOCH":11713,"BSTAR":0.00024002,"MEAN_MOTION_DOT":1.03e-6,"MEAN_MOTION_DDOT":0},{"OBJECT_NAME":"ONEWEB-0718","OBJECT_ID":"2023-043AM","EPOCH":"2025-08-13T12:57:18.260352","MEAN_MOTION":13.15548954,"ECCENTRICITY":0.0001425,"INCLINATION":87.9081,"RA_OF_ASC_NODE":320.5729,"ARG_OF_PERICENTER":109.7543,"MEAN_ANOMALY":250.3742,"EPHEMERIS_TYPE":0,"CLASSIFICATION_TYPE":"U","NORAD_CAT_ID":56081,"ELEMENT_SET_NO":999,"REV_AT_EPOCH":11598,"BSTAR":0.00019879,"MEAN_MOTION_DOT":8.8e-7,"MEAN_MOTION_DDOT":0},{"OBJECT_NAME":"ONEWEB-0561","OBJECT_ID":"2023-068A","EPOCH":"2025-08-13T13:11:12.110208","MEAN_MOTION":13.20771728,"ECCENTRICITY":0.0002401,"INCLINATION":87.929,"RA_OF_ASC_NODE":335.7602,"ARG_OF_PERICENTER":95.8868,"MEAN_ANOMALY":264.2539,"EPHEMERIS_TYPE":0,"CLASSIFICATION_TYPE":"U","NORAD_CAT_ID":56710,"ELEMENT_SET_NO":999,"REV_AT_EPOCH":10889,"BSTAR":0.0001849,"MEAN_MOTION_DOT":8.8e-7,"MEAN_MOTION_DDOT":0},{"OBJECT_NAME":"ONEWEB-0668","OBJECT_ID":"2023-068B","EPOCH":"2025-08-13T14:13:46.209216","MEAN_MOTION":13.16597035,"ECCENTRICITY":0.0001635,"INCLINATION":87.9035,"RA_OF_ASC_NODE":290.0705,"ARG_OF_PERICENTER":111.0431,"MEAN_ANOMALY":249.0875,"EPHEMERIS_TYPE":0,"CLASSIFICATION_TYPE":"U","NORAD_CAT_ID":56711,"ELEMENT_SET_NO":999,"REV_AT_EPOCH":11130,"BSTAR":-0.00024095,"MEAN_MOTION_DOT":-7.9e-7,"MEAN_MOTION_DDOT":0},{"OBJECT_NAME":"ONEWEB-0676","OBJECT_ID":"2023-068C","EPOCH":"2025-08-13T13:45:20.628288","MEAN_MOTION":13.16596352,"ECCENTRICITY":0.0002358,"INCLINATION":87.9031,"RA_OF_ASC_NODE":290.0964,"ARG_OF_PERICENTER":95.8893,"MEAN_ANOMALY":264.2506,"EPHEMERIS_TYPE":0,"CLASSIFICATION_TYPE":"U","NORAD_CAT_ID":56712,"ELEMENT_SET_NO":999,"REV_AT_EPOCH":11122,"BSTAR":0.00012275,"MEAN_MOTION_DOT":6.0e-7,"MEAN_MOTION_DDOT":0},{"OBJECT_NAME":"ONEWEB-0677","OBJECT_ID":"2023-068D","EPOCH":"2025-08-13T12:55:18.365664","MEAN_MOTION":13.20772748,"ECCENTRICITY":0.0002131,"INCLINATION":87.9288,"RA_OF_ASC_NODE":335.739,"ARG_OF_PERICENTER":104.8554,"MEAN_ANOMALY":255.2815,"EPHEMERIS_TYPE":0,"CLASSIFICATION_TYPE":"U","NORAD_CAT_ID":56713,"ELEMENT_SET_NO":999,"REV_AT_EPOCH":10919,"BSTAR":2.001e-6,"MEAN_MOTION_DOT":1.4e-7,"MEAN_MOTION_DDOT":0},{"OBJECT_NAME":"ONEWEB-0678","OBJECT_ID":"2023-068E","EPOCH":"2025-08-13T14:01:10.037280","MEAN_MOTION":13.15547363,"ECCENTRICITY":0.0002045,"INCLINATION":87.909,"RA_OF_ASC_NODE":320.5354,"ARG_OF_PERICENTER":89.7145,"MEAN_ANOMALY":270.4219,"EPHEMERIS_TYPE":0,"CLASSIFICATION_TYPE":"U","NORAD_CAT_ID":56714,"ELEMENT_SET_NO":999,"REV_AT_EPOCH":10884,"BSTAR":0.00012142,"MEAN_MOTION_DOT":5.9e-7,"MEAN_MOTION_DDOT":0},{"OBJECT_NAME":"ONEWEB-0679","OBJECT_ID":"2023-068F","EPOCH":"2025-08-13T11:11:26.195424","MEAN_MOTION":13.16593207,"ECCENTRICITY":0.0002244,"INCLINATION":87.9031,"RA_OF_ASC_NODE":290.1099,"ARG_OF_PERICENTER":109.9462,"MEAN_ANOMALY":250.1911,"EPHEMERIS_TYPE":0,"CLASSIFICATION_TYPE":"U","NORAD_CAT_ID":56715,"ELEMENT_SET_NO":999,"REV_AT_EPOCH":11123,"BSTAR":0.00031267,"MEAN_MOTION_DOT":1.32e-6,"MEAN_MOTION_DDOT":0},{"OBJECT_NAME":"ONEWEB-0680","OBJECT_ID":"2023-068G","EPOCH":"2025-08-13T11:12:35.785440","MEAN_MOTION":13.21827242,"ECCENTRICITY":0.0001811,"INCLINATION":87.9251,"RA_OF_ASC_NODE":305.3621,"ARG_OF_PERICENTER":116.6623,"MEAN_ANOMALY":243.4696,"EPHEMERIS_TYPE":0,"CLASSIFICATION_TYPE":"U","NORAD_CAT_ID":56716,"ELEMENT_SET_NO":999,"REV_AT_EPOCH":11044,"BSTAR":0.0002043,"MEAN_MOTION_DOT":9.7e-7,"MEAN_MOTION_DDOT":0},{"OBJECT_NAME":"ONEWEB-0681","OBJECT_ID":"2023-068H","EPOCH":"2025-08-13T14:20:02.754240","MEAN_MOTION":13.22990963,"ECCENTRICITY":0.0002353,"INCLINATION":87.925,"RA_OF_ASC_NODE":305.3539,"ARG_OF_PERICENTER":117.9356,"MEAN_ANOMALY":242.2017,"EPHEMERIS_TYPE":0,"CLASSIFICATION_TYPE":"U","NORAD_CAT_ID":56717,"ELEMENT_SET_NO":999,"REV_AT_EPOCH":11045,"BSTAR":-0.093514,"MEAN_MOTION_DOT":-0.00039114,"MEAN_MOTION_DDOT":0},{"OBJECT_NAME":"ONEWEB-0682","OBJECT_ID":"2023-068J","EPOCH":"2025-08-13T05:31:12.539136","MEAN_MOTION":13.15548998,"ECCENTRICITY":0.0001843,"INCLINATION":87.9068,"RA_OF_ASC_NODE":320.6307,"ARG_OF_PERICENTER":115.1708,"MEAN_ANOMALY":244.9613,"EPHEMERIS_TYPE":0,"CLASSIFICATION_TYPE":"U","NORAD_CAT_ID":56718,"ELEMENT_SET_NO":999,"REV_AT_EPOCH":10896,"BSTAR":-0.00015013,"MEAN_MOTION_DOT":-4.4e-7,"MEAN_MOTION_DDOT":0},{"OBJECT_NAME":"ONEWEB-0683","OBJECT_ID":"2023-068K","EPOCH":"2025-08-13T13:20:06.186624","MEAN_MOTION":13.15546836,"ECCENTRICITY":0.0001803,"INCLINATION":87.9082,"RA_OF_ASC_NODE":320.5411,"ARG_OF_PERICENTER":107.1414,"MEAN_ANOMALY":252.9913,"EPHEMERIS_TYPE":0,"CLASSIFICATION_TYPE":"U","NORAD_CAT_ID":56719,"ELEMENT_SET_NO":999,"REV_AT_EPOCH":10897,"BSTAR":0.00026488,"MEAN_MOTION_DOT":1.13e-6,"MEAN_MOTION_DDOT":0},{"OBJECT_NAME":"ONEWEB-0684","OBJECT_ID":"2023-068L","EPOCH":"2025-08-13T13:31:30.534240","MEAN_MOTION":13.15546837,"ECCENTRICITY":0.0001857,"INCLINATION":87.9061,"RA_OF_ASC_NODE":320.5439,"ARG_OF_PERICENTER":54.9635,"MEAN_ANOMALY":305.1669,"EPHEMERIS_TYPE":0,"CLASSIFICATION_TYPE":"U","NORAD_CAT_ID":56720,"ELEMENT_SET_NO":999,"REV_AT_EPOCH":10880,"BSTAR":0.00038756,"MEAN_MOTION_DOT":1.59e-6,"MEAN_MOTION_DDOT":0},{"OBJECT_NAME":"ONEWEB-0686","OBJECT_ID":"2023-068M","EPOCH":"2025-08-13T10:56:34.810080","MEAN_MOTION":13.16596414,"ECCENTRICITY":0.0001702,"INCLINATION":87.9022,"RA_OF_ASC_NODE":290.1444,"ARG_OF_PERICENTER":98.9198,"MEAN_ANOMALY":261.2126,"EPHEMERIS_TYPE":0,"CLASSIFICATION_TYPE":"U","NORAD_CAT_ID":56721,"ELEMENT_SET_NO":999,"REV_AT_EPOCH":11122,"BSTAR":2.6863e-5,"MEAN_MOTION_DOT":2.3e-7,"MEAN_MOTION_DDOT":0},{"OBJECT_NAME":"ONEWEB-0694","OBJECT_ID":"2023-068N","EPOCH":"2025-08-13T13:47:37.936896","MEAN_MOTION":13.1659389,"ECCENTRICITY":0.000185,"INCLINATION":87.904,"RA_OF_ASC_NODE":290.0453,"ARG_OF_PERICENTER":109.6903,"MEAN_ANOMALY":250.4428,"EPHEMERIS_TYPE":0,"CLASSIFICATION_TYPE":"U","NORAD_CAT_ID":56722,"ELEMENT_SET_NO":999,"REV_AT_EPOCH":11129,"BSTAR":-0.00021547,"MEAN_MOTION_DOT":-7.0e-7,"MEAN_MOTION_DDOT":0},{"OBJECT_NAME":"ONEWEB-0696","OBJECT_ID":"2023-068P","EPOCH":"2025-08-13T12:29:53.917152","MEAN_MOTION":13.15558671,"ECCENTRICITY":0.0001932,"INCLINATION":87.9084,"RA_OF_ASC_NODE":320.6012,"ARG_OF_PERICENTER":89.206,"MEAN_ANOMALY":270.9291,"EPHEMERIS_TYPE":0,"CLASSIFICATION_TYPE":"U","NORAD_CAT_ID":56723,"ELEMENT_SET_NO":999,"REV_AT_EPOCH":10891,"BSTAR":-0.0065805,"MEAN_MOTION_DOT":-2.464e-5,"MEAN_MOTION_DDOT":0}]
