ONEWEB-0647             
1 56079U 23043AK  25225.54927719 -.00000056  00000+0 -18215-3 0  9991
2 56079  87.9084 320.5984 0002110  95.4046 264.7325 13.15549046115978
ONEWEB-0651             
1 56080U 23043AL  25225.24030167  .00000103  00000+0  24002-3 0  9994
2 56080  87.9086 320.6494 0002191 104.5246 255.6127 13.15550135117132
ONEWEB-0718             
1 56081U 23043AM  25225.53979468  .00000088  00000+0  19879-3 0  9991
2 56081  87.9081 320.5729 0001425 109.7543 250.3742 13.15548954115986
ONEWEB-0561             
1 56710U 23068A   25225.54944572  .00000088  00000+0  18490-3 0  9994
2 56710  87.9290 335.7602 0002401  95.8868 264.2539 13.20771728108898
ONEWEB-0668             
1 56711U 23068B   25225.59289594 -.00000079  00000+0 -24095-3 0  9996
2 56711  87.9035 290.0705 0001635 111.0431 249.0875 13.16597035111304
ONEWEB-0676             
1 56712U 23068C   25225.57315542  .00000060  00000+0  12275-3 0  9993
2 56712  87.9031 290.0964 0002358  95.8893 264.2506 13.16596352111224
ONEWEB-0677             
1 56713U 23068D   25225.53840701  .00000014  00000+0  20010-5 0  9997
2 56713  87.9288 335.7390 0002131 104.8554 255.2815 13.20772748109199
ONEWEB-0678             
1 56714U 23068E   25225.58414395  .00000059  00000+0  12142-3 0  9993
2 56714  87.9090 320.5354 0002045  89.7145 270.4219 13.15547363108849
ONEWEB-0679             
1 56715U 23068F   25225.46627541  .00000132  00000+0  31267-3 0  9991
2 56715  87.9031 290.1099 0002244 109.9462 250.1911 13.16593207111231
ONEWEB-0680             
1 56716U 23068G   25225.46708085  .00000097  00000+0  20430-3 0  9995
2 56716  87.9251 305.3621 0001811 116.6623 243.4696 13.21827242110441
ONEWEB-0681             
1 56717U 23068H   25225.59725410 -.00039114  00000+0 -93514-1 0  9996
2 56717  87.9250 305.3539 0002353 117.9356 242.2017 13.22990963110455
ONEWEB-0682             
1 56718U 23068J   25225.23000624 -.00000044  00000+0 -15013-3 0  9991
2 56718  87.9068 320.6307 0001843 115.1708 244.9613 13.15548998108963
ONEWEB-0683             
1 56719U 23068K   25225.55562716  .00000113  00000+0  26488-3 0  9995
2 56719  87.9082 320.5411 0001803 107.1414 252.9913 13.15546836108978
ONEWEB-0684             
1 56720U 23068L   25225.56354785  .00000159  00000+0  38756-3 0  9994
2 56720  87.9061 320.5439 0001857  54.9635 305.1669 13.15546837108802
ONEWEB-0686             
1 56721U 23068M   25225.45595845  .00000023  00000+0  26863-4 0  9994
2 56721  87.9022 290.1444 0001702  98.9198 261.2126 13.16596414111226
ONEWEB-0694             
1 56722U 23068N   25225.57474464 -.00000070  00000+0 -21547-3 0  9998
2 56722  87.9040 290.0453 0001850 109.6903 250.4428 13.16593890111291
ONEWEB-0696             
1 56723U 23068P   25225.52076293 -.00002464  00000+0 -65805-2 0  9995
2 56723  87.9084 320.6012 0001932  89.2060 270.9291 13.15558671108916
